COSMOS 2251 DEB         
1 33982U 93036FR  26061.81994009  .00003722  00000+0  73927-3 0  9995
2 33982  74.0695 207.3108 0075951 232.4545 256.7343 14.60693969903286
COSMOS 2251 DEB         
1 33983U 93036FS  26061.54361314  .00002380  00000+0  60659-3 0  9990
2 33983  74.0532 357.1082 0018864  79.7741  93.7914 14.51040350897861
COSMOS 2251 DEB         
1 33984U 93036FT  26061.80602534  .00005966  00000+0  10593-2 0  9996
2 33984  74.0085 192.3905 0023814   1.7159 117.4991 14.67229351902400
COSMOS 2251 DEB         
1 33986U 93036FV  26061.72167615  .00002635  00000+0  77567-3 0  9990
2 33986  74.0372 154.0588 0041615 212.5211 306.8632 14.43667993891824
COSMOS 2251 DEB         
1 33990U 93036FZ  26061.67519036  .00000943  00000+0  90702-3 0  9993
2 33990  73.9287 157.6562 0405110 163.4435 320.3779 13.50135807838082
COSMOS 2251 DEB         
1 33992U 93036GB  26061.77278219  .00005359  00000+0  93974-3 0  9991
2 33992  74.0240 183.2656 0054688 281.5577 196.2008 14.67020281902987
COSMOS 2251 DEB         
1 33994U 93036GD  26061.39440214  .00000352  00000+0  11686-3 0  9995
2 33994  74.0429  42.9944 0022729 163.2552 317.3474 14.41278477895673
COSMOS 2251 DEB         
1 33995U 93036GE  26061.77301526  .00002969  00000+0  10251-2 0  9992
2 33995  74.0639 332.8818 0060330 325.8420  33.8856 14.35238360886672
COSMOS 2251 DEB         
1 33999U 93036GJ  26061.43973530  .00015074  00000+0  17161-2 0  9997
2 33999  73.9158  71.5592 0047056 304.4006  55.2727 14.85398962904338
COSMOS 2251 DEB         
1 34001U 93036GL  26061.65414237  .00000499  00000+0  17596-3 0  9998
2 34001  74.0384 134.6356 0020613 204.0440 317.1604 14.37203910892944
COSMOS 2251 DEB         
1 34003U 93036GN  26061.65429685  .00003365  00000+0  22336-2 0  9995
2 34003  74.0783 150.5849 0278546 244.7153 112.4877 13.84581572855317
COSMOS 2251 DEB         
1 34004U 93036GP  26061.38233212  .00005522  00000+0  14274-2 0  9994
2 34004  74.0358 163.6754 0029988 163.3405 196.8748 14.49879236891846
COSMOS 2251 DEB         
1 34005U 93036GQ  26061.43863880  .00000397  00000+0  13316-3 0  9993
2 34005  74.0434  66.3872 0020215 171.8408 309.0221 14.40377916895266
COSMOS 2251 DEB         
1 34006U 93036GR  26061.82095911  .00051580  00000+0  38130-2 0  9999
2 34006  74.0543 341.0528 0011469 245.6977 170.0941 15.02890667898687
COSMOS 2251 DEB         
1 34007U 93036GS  26061.80309764  .00004944  00000+0  90251-3 0  9997
2 34007  74.0187 192.6847 0047263 306.3060  53.3748 14.65511074902522
COSMOS 2251 DEB         
1 34008U 93036GT  26061.79290742  .00000369  00000+0  14327-3 0  9998
2 34008  74.0346 184.2119 0023144 165.5600 355.7618 14.33208783891118
