[{"OBJECT_NAME":"COSMOS 2251 DEB","OBJECT_ID":"1993-036FR","EPOCH":"2026-03-02T19:40:42.823776","MEAN_MOTION":14.60693969,"ECCENTRICITY":0.0075951,"INCLINATION":74.0695,"RA_OF_ASC_NODE":207.3108,"ARG_OF_PERICENTER":232.4545,"MEAN_ANOMALY":256.7343,"EPHEMERIS_TYPE":0,"CLASSIFICATION_TYPE":"U","NORAD_CAT_ID":33982,"ELEMENT_SET_NO":999,"REV_AT_EPOCH":90328,"BSTAR":0.00073927,"MEAN_MOTION_DOT":3.722e-5,"MEAN_MOTION_DDOT":0},{"OBJECT_NAME":"COSMOS 2251 DEB","OBJECT_ID":"1993-036FS","EPOCH":"2026-03-02T13:02:48.175296","MEAN_MOTION":14.5104035,"ECCENTRICITY":0.00188642,"INCLINATION":74.0532,"RA_OF_ASC_NODE":357.1082,"ARG_OF_PERICENTER":79.7741,"MEAN_ANOMALY":93.7914,"EPHEMERIS_TYPE":0,"CLASSIFICATION_TYPE":"U","NORAD_CAT_ID":33983,"ELEMENT_SET_NO":999,"REV_AT_EPOCH":89786,"BSTAR":0.00060658821,"MEAN_MOTION_DOT":2.38e-5,"MEAN_MOTION_DDOT":0},{"OBJECT_NAME":"COSMOS 2251 DEB","OBJECT_ID":"1993-036FT","EPOCH":"2026-03-02T19:20:40.589376","MEAN_MOTION":14.67229351,"ECCENTRICITY":0.0023814,"INCLINATION":74.0085,"RA_OF_ASC_NODE":192.3905,"ARG_OF_PERICENTER":1.7159,"MEAN_ANOMALY":117.4991,"EPHEMERIS_TYPE":0,"CLASSIFICATION_TYPE":"U","NORAD_CAT_ID":33984,"ELEMENT_SET_NO":999,"REV_AT_EPOCH":90240,"BSTAR":0.0010593,"MEAN_MOTION_DOT":5.966e-5,"MEAN_MOTION_DDOT":0},{"OBJECT_NAME":"COSMOS 2251 DEB","OBJECT_ID":"1993-036FV","EPOCH":"2026-03-02T17:19:12.819360","MEAN_MOTION":14.43667993,"ECCENTRICITY":0.0041615,"INCLINATION":74.0372,"RA_OF_ASC_NODE":154.0588,"ARG_OF_PERICENTER":212.5211,"MEAN_ANOMALY":306.8632,"EPHEMERIS_TYPE":0,"CLASSIFICATION_TYPE":"U","NORAD_CAT_ID":33986,"ELEMENT_SET_NO":999,"REV_AT_EPOCH":89182,"BSTAR":0.00077567,"MEAN_MOTION_DOT":2.635e-5,"MEAN_MOTION_DDOT":0},{"OBJECT_NAME":"COSMOS 2251 DEB","OBJECT_ID":"1993-036FZ","EPOCH":"2026-03-02T16:12:16.447104","MEAN_MOTION":13.50135807,"ECCENTRICITY":0.040511,"INCLINATION":73.9287,"RA_OF_ASC_NODE":157.6562,"ARG_OF_PERICENTER":163.4435,"MEAN_ANOMALY":320.3779,"EPHEMERIS_TYPE":0,"CLASSIFICATION_TYPE":"U","NORAD_CAT_ID":33990,"ELEMENT_SET_NO":999,"REV_AT_EPOCH":83808,"BSTAR":0.00090702,"MEAN_MOTION_DOT":9.43e-6,"MEAN_MOTION_DDOT":0},{"OBJECT_NAME":"COSMOS 2251 DEB","OBJECT_ID":"1993-036GB","EPOCH":"2026-03-02T18:32:48.381216","MEAN_MOTION":14.67020281,"ECCENTRICITY":0.0054688,"INCLINATION":74.024,"RA_OF_ASC_NODE":183.2656,"ARG_OF_PERICENTER":281.5577,"MEAN_ANOMALY":196.2008,"EPHEMERIS_TYPE":0,"CLASSIFICATION_TYPE":"U","NORAD_CAT_ID":33992,"ELEMENT_SET_NO":999,"REV_AT_EPOCH":90298,"BSTAR":0.00093974,"MEAN_MOTION_DOT":5.359e-5,"MEAN_MOTION_DDOT":0},{"OBJECT_NAME":"COSMOS 2251 DEB","OBJECT_ID":"1993-036GD","EPOCH":"2026-03-02T09:27:56.344896","MEAN_MOTION":14.41278477,"ECCENTRICITY":0.00227297,"INCLINATION":74.0429,"RA_OF_ASC_NODE":42.9944,"ARG_OF_PERICENTER":163.2552,"MEAN_ANOMALY":317.3474,"EPHEMERIS_TYPE":0,"CLASSIFICATION_TYPE":"U","NORAD_CAT_ID":33994,"ELEMENT_SET_NO":999,"REV_AT_EPOCH":89567,"BSTAR":0.00011686,"MEAN_MOTION_DOT":3.52e-6,"MEAN_MOTION_DDOT":0},{"OBJECT_NAME":"COSMOS 2251 DEB","OBJECT_ID":"1993-036GE","EPOCH":"2026-03-02T18:33:08.518464","MEAN_MOTION":14.3523836,"ECCENTRICITY":0.006033,"INCLINATION":74.0639,"RA_OF_ASC_NODE":332.8818,"ARG_OF_PERICENTER":325.842,"MEAN_ANOMALY":33.8856,"EPHEMERIS_TYPE":0,"CLASSIFICATION_TYPE":"U","NORAD_CAT_ID":33995,"ELEMENT_SET_NO":999,"REV_AT_EPOCH":88667,"BSTAR":0.0010251,"MEAN_MOTION_DOT":2.969e-5,"MEAN_MOTION_DDOT":0},{"OBJECT_NAME":"COSMOS 2251 DEB","OBJECT_ID":"1993-036GJ","EPOCH":"2026-03-02T10:33:13.129920","MEAN_MOTION":14.85398962,"ECCENTRICITY":0.00470568,"INCLINATION":73.9158,"RA_OF_ASC_NODE":71.5592,"ARG_OF_PERICENTER":304.4006,"MEAN_ANOMALY":55.2727,"EPHEMERIS_TYPE":0,"CLASSIFICATION_TYPE":"U","NORAD_CAT_ID":33999,"ELEMENT_SET_NO":999,"REV_AT_EPOCH":90433,"BSTAR":0.0017161059,"MEAN_MOTION_DOT":0.00015074,"MEAN_MOTION_DDOT":0},{"OBJECT_NAME":"COSMOS 2251 DEB","OBJECT_ID":"1993-036GL","EPOCH":"2026-03-02T15:41:57.900768","MEAN_MOTION":14.3720391,"ECCENTRICITY":0.0020613,"INCLINATION":74.0384,"RA_OF_ASC_NODE":134.6356,"ARG_OF_PERICENTER":204.044,"MEAN_ANOMALY":317.1604,"EPHEMERIS_TYPE":0,"CLASSIFICATION_TYPE":"U","NORAD_CAT_ID":34001,"ELEMENT_SET_NO":999,"REV_AT_EPOCH":89294,"BSTAR":0.00017596,"MEAN_MOTION_DOT":4.99e-6,"MEAN_MOTION_DDOT":0},{"OBJECT_NAME":"COSMOS 2251 DEB","OBJECT_ID":"1993-036GN","EPOCH":"2026-03-02T15:42:11.247840","MEAN_MOTION":13.84581572,"ECCENTRICITY":0.0278546,"INCLINATION":74.0783,"RA_OF_ASC_NODE":150.5849,"ARG_OF_PERICENTER":244.7153,"MEAN_ANOMALY":112.4877,"EPHEMERIS_TYPE":0,"CLASSIFICATION_TYPE":"U","NORAD_CAT_ID":34003,"ELEMENT_SET_NO":999,"REV_AT_EPOCH":85531,"BSTAR":0.0022336,"MEAN_MOTION_DOT":3.365e-5,"MEAN_MOTION_DDOT":0},{"OBJECT_NAME":"COSMOS 2251 DEB","OBJECT_ID":"1993-036GP","EPOCH":"2026-03-02T09:10:33.495168","MEAN_MOTION":14.49879236,"ECCENTRICITY":0.0029988,"INCLINATION":74.0358,"RA_OF_ASC_NODE":163.6754,"ARG_OF_PERICENTER":163.3405,"MEAN_ANOMALY":196.8748,"EPHEMERIS_TYPE":0,"CLASSIFICATION_TYPE":"U","NORAD_CAT_ID":34004,"ELEMENT_SET_NO":999,"REV_AT_EPOCH":89184,"BSTAR":0.0014273517,"MEAN_MOTION_DOT":5.522e-5,"MEAN_MOTION_DDOT":0},{"OBJECT_NAME":"COSMOS 2251 DEB","OBJECT_ID":"1993-036GQ","EPOCH":"2026-03-02T10:31:38.392320","MEAN_MOTION":14.40377916,"ECCENTRICITY":0.0020215,"INCLINATION":74.0434,"RA_OF_ASC_NODE":66.3872,"ARG_OF_PERICENTER":171.8408,"MEAN_ANOMALY":309.0221,"EPHEMERIS_TYPE":0,"CLASSIFICATION_TYPE":"U","NORAD_CAT_ID":34005,"ELEMENT_SET_NO":999,"REV_AT_EPOCH":89526,"BSTAR":0.00013316007,"MEAN_MOTION_DOT":3.97e-6,"MEAN_MOTION_DDOT":0},{"OBJECT_NAME":"COSMOS 2251 DEB","OBJECT_ID":"1993-036GR","EPOCH":"2026-03-02T19:42:10.867104","MEAN_MOTION":15.02890667,"ECCENTRICITY":0.0011469,"INCLINATION":74.0543,"RA_OF_ASC_NODE":341.0528,"ARG_OF_PERICENTER":245.6977,"MEAN_ANOMALY":170.0941,"EPHEMERIS_TYPE":0,"CLASSIFICATION_TYPE":"U","NORAD_CAT_ID":34006,"ELEMENT_SET_NO":999,"REV_AT_EPOCH":89868,"BSTAR":0.003813,"MEAN_MOTION_DOT":0.0005158,"MEAN_MOTION_DDOT":0},{"OBJECT_NAME":"COSMOS 2251 DEB","OBJECT_ID":"1993-036GS","EPOCH":"2026-03-02T19:16:27.636096","MEAN_MOTION":14.65511074,"ECCENTRICITY":0.0047263,"INCLINATION":74.0187,"RA_OF_ASC_NODE":192.6847,"ARG_OF_PERICENTER":306.306,"MEAN_ANOMALY":53.3748,"EPHEMERIS_TYPE":0,"CLASSIFICATION_TYPE":"U","NORAD_CAT_ID":34007,"ELEMENT_SET_NO":999,"REV_AT_EPOCH":90252,"BSTAR":0.00090251,"MEAN_MOTION_DOT":4.944e-5,"MEAN_MOTION_DDOT":0},{"OBJECT_NAME":"COSMOS 2251 DEB","OBJECT_ID":"1993-036GT","EPOCH":"2026-03-02T19:01:47.201088","MEAN_MOTION":14.33208783,"ECCENTRICITY":0.0023144,"INCLINATION":74.0346,"RA_OF_ASC_NODE":184.2119,"ARG_OF_PERICENTER":165.56,"MEAN_ANOMALY":355.7618,"EPHEMERIS_TYPE":0,"CLASSIFICATION_TYPE":"U","NORAD_CAT_ID":34008,"ELEMENT_SET_NO":999,"REV_AT_EPOCH":89111,"BSTAR":0.00014327,"MEAN_MOTION_DOT":3.69e-6,"MEAN_MOTION_DDOT":0}]
